STORE NAME,ADDRESS,CITY,STATE,ZIP CODE,TYPE
Fairway Finer Foods,200 E 144th St,Dolton,IL,60419,Supermarket
Ultra Foods,13001 Ashland Ave,Calumet Park,IL,60827,Supermarket
Pete's Fresh Market,3720 W 95th St,Evergreen Park,IL,60805,Supermarket
LAGENS SUPERMARKET INC,8859 S CALIFORNIA AVE,EVERGREEN PARK,IL,60805,Supermarket
SUPERMERCADO TORRES INC,5304 W 25TH ST,Cicero,IL,60804,Supermarket
La Chiquita,4926 W Cermak Rd,Cicero,IL,60804,Supermarket
Cermak Produce,4728 W Cermak Rd,Cicero,IL,60804,Supermarket
Carnicerias Jimenez,1948 S Cicero Ave,Cicero,IL,60804,Supermarket
Carniceria 5 Hermanos,6500 16th St,Berwyn,IL,60402,Supermarket
Torres #3 Supermarket,1642 S Cicero Ave,Cicero,IL,60804,Supermarket
El Tortito Meat Market,5830 16th St,Cicero,IL,60402,Supermarket
Carniceria 5 Hermanos,5722 16th St,Cicero,IL,60804,Supermarket
La Rosita Foods,6609 W Roosevelt Rd,Berwyn,IL,60402,Supermarket
FAIR SHARE FOODS,6226 ROOSEVELT RD,Oak Park,IL,60304,Supermarket
Billy's Fruit Market,400 Madison St,Oak Park,IL,60304,Supermarket
North Avenue Fresh Market,6209 North Ave,Oak Park,IL,60302,Supermarket
Super Low Food Center,7411 W Grand Ave,Elmwood Park,IL,60707,Supermarket
La Chiquita,9709 Franklin Ave,Franklin Park,IL,60131,Supermarket
Super Low Food Center,3720 Rose St,Schiller Park,IL,60176,Supermarket
Butera Market,4411 N Cumberland Ave,Norridge,IL,60706,Supermarket
Produce World,8325 W Lawrence Ave,Norridge,IL,60706,Supermarket
Butera Market,4761 N Nagle Ave,Harwood Heights,IL,60706,Supermarket
Morningfields Market,800 DEVON AVE,PARK RIDGE,IL,60068,Supermarket
LINCOLNWOOD PRODUCE LTD,7175 N LINCOLN AVE,LINCOLNWOOD,IL,60712,Supermarket
Grand Mart International Mart,5630 W Touhy Ave,Niles,IL,60714,Supermarket
H Mart,7501 N Waukegan,Niles,IL,60714,Supermarket
JERRYS FRUIT & GARDEN CENTER INC,7901 N MILWAUKEE AVE,Niles,IL,60714,Supermarket
Trader Joe's,190 N. Northwest Highway,Park Ridge,IL,60068,Specialty
Food 4 Less,2400 Main St,Evanston,IL,60202,FullService
Aldi,4630 Cermak Rd,Cicero,IL,60804,Discount
Food 4 Less,3039 S Cicero,Cicero,IL,60804,FullService
Dominick's,3141 Thatcher Ave,River Grove,IL,60171,FullService
Target,4120 W 95th St,Oak Lawn,IL,60453,Supercenter
Costco,7311 North Melvina Ave,Niles,IL,60714,Wholesale
Sams Club,2601 S Cicero Ave,Cicero,IL,60804,Wholesale
Jewel-Osco,5667 W Touhy Ave,Niles,IL,60714,FullService
Dominick's,7501 North Ave,River Forest,IL,60305,FullService
Jewel-Osco,4650 W 103Rd St,Oak Lawn,IL,60453,FullService
Target,7100 S Cicero Ave,Bedford Park,IL,60629,Supercenter
Target,2209 Howard St,Evanston,IL,60202,Supercenter
Aldi,11340 S Cicero Ave,Alsip,IL,60803,Discount
Dominick's,8700 S Cicero Ave,Oak Lawn,IL,60453,FullService
Ultra Foods,13001 Ashland Ave,Calumet Park,IL,60827,FullService
Jewel-Osco,481 Busse Hwy,Park Ridge,IL,60068,FullService
Aldi,12050 S Pulaski Rd,Alsip,IL,60803,Discount
Jewel-Osco,2485 Howard St,Evanston,IL,60202,FullService
Aldi,3231 W. 87th St.,Evergreen Park,IL,60805,Discount
Aldi,4703 N Harlem,Harwood Heights,IL,60706,Discount
Dominick's,259 Lake St,Oak Park,IL,60302,FullService
Jewel-Osco,7342 W Foster Ave,Chicago,IL,60656,FullService
Sams Club,2450 Main St,Evanston,IL,60202,Wholesale
Target,6150 W Touhy Ave,Niles,IL,60714,Supercenter
Aldi,7020 S. Cicero Ave.,Bedford Park,IL,60638,Discount
Jewel-Osco,7910 S Cicero Ave,Burbank,IL,60459,FullService
Jewel-Osco,9424 S Pulaski Rd,Oak Lawn,IL,60453,FullService
Aldi,13085 S. Ashland Ave,Calumet Park,IL,60827,Discount
Costco,7300 S. Cicero Ave,Bedford Park,IL,60629,Wholesale
Jewel-Osco,4734 N Cumberland Ave,Chicago,IL,60656,FullService
Food 4 Less,12150 S. Pulaski Rd.,Alsip,IL,60803,FullService
Jewel-Osco,7900 N Milwaukee Ave,Niles,IL,60714,FullService
Aldi,7428 N Waukegan Rd,Niles,IL,60714,Discount
Food 4 Less,7770 S Cicero Ave,Burbank,IL,60459,FullService
Dominick's,1900 S Cumberland Ave,Park Ridge,IL,60068,FullService
Aldi,2541 W 95th St,Evergreen Park,IL,60805,Discount
Target,4050 N Harlem Ave,Norridge,IL,60706,Supercenter
Aldi,12215 S. Western Ave,Blue Island,IL,60406,Discount
Jewel-Osco,12003 S Pulaski Rd,Alsip,IL,60803,FullService
Dominick's,3243 W 115th St,Merrionette Park,IL,60803,FullService
Aldi,9310 Irving Park Rd,Schiller Park,IL,60176,Discount
Jewel-Osco,438 W. Madison St,Oak Park,IL,60302,FullService
Sams Club,9400 S Western Ave,Evergreen Park,IL,60805,Wholesale
Dominick's,6810 N McCormick Blvd,Lincolnwood,IL,60712,FullService
Target,2901 S Cicero Ave,Cicero,IL,60804,Supercenter
